#cP2018 05 06  0  0  0.00000000      96     U IGS14 FIT  EMR
## 2000 000000.00000000   900.00000000 58244 0.0000000000000                    
+   31   G01G02G03G05G06G07G08G09G10G11G12G13G14G15G16G17G18
+        G19G20G21G22G23G24G25G26G27G28G29G30G31G32 00 00 00
+         00 00 00 00 00 00 00 00 00 00 00 00 00 00 00 00 00
+         00 00 00 00 00 00 00 00 00 00 00 00 00 00 00 00 00
+         00 00 00 00 00 00 00 00 00 00 00 00 00 00 00 00 00
++         5  5  5  5  5  5  5  5  5  5  5  5  5  5  5  5  5                    
++         5  5  5  5  5  5  5  5  5  5  5  5  5  5  0  0  0                    
++         0  0  0  0  0  0  0  0  0  0  0  0  0  0  0  0  0                    
++         0  0  0  0  0  0  0  0  0  0  0  0  0  0  0  0  0                    
++         0  0  0  0  0  0  0  0  0  0  0  0  0  0  0  0  0                    
%c G  cc GPS ccc cccc cccc cccc cccc ccccc ccccc ccccc ccccc
%c cc cc ccc ccc cccc cccc cccc cccc ccccc ccccc ccccc ccccc                    
%f  1.2500000  1.025000000  0.00000000000  0.000000000000000
%f  0.0000000  0.000000000  0.00000000000  0.000000000000000                    
%i    0    0    0    0      0      0      0      0         0                    
%i    0    0    0    0      0      0      0      0         0                    
/* CCCCCCCCCCCCCCCCCCCCCCCCCCCCCCCCCCCCCCCCCCCCCCCCCCCCCCCCC                    
/* CCCCCCCCCCCCCCCCCCCCCCCCCCCCCCCCCCCCCCCCCCCCCCCCCCCCCCCCC                    
/* CCCCCCCCCCCCCCCCCCCCCCCCCCCCCCCCCCCCCCCCCCCCCCCCCCCCCCCCC                    
/* PCV:IGS14_1935 OL/AL:FES2004  NONE     YN ORB:CoN CLK:CoN                    
*  2018  5  6  8 15  0.00000000                                                 
PG01 -13302.068887  17350.238832  14722.157525    -45.876466                    
PG02  14279.350813   6545.341989 -20890.669446    123.546376                    
PG03 -21982.707855  13186.699438  -6856.437058     64.789557                    
PG05  23858.637471    -98.035842 -11989.340923     -8.616649                    
PG06   7661.872748  19832.809710 -15867.100312    404.961300                    
PG07  -5284.685641  25762.741237   -520.412500    196.164847                    
PG08 -19135.906123    825.103260  18512.507008   -100.433855                    
PG09   -816.169997  17572.366683 -19926.109458    513.024617                    
PG10  -6222.569241 -13934.879721  21785.134318    183.212921                    
PG11 -11749.954681  13850.988187  18867.253507   -736.857910                    
PG12  23957.648204 -10316.316544  -4593.701352    335.266004                    
PG13  21105.128424   9150.806721  13163.045964    -94.816394                    
PG14 -19235.084997 -18448.707195   -261.956339    -96.841472                    
PG15  19132.208617  -3122.477325  18103.032793   -354.743822                    
PG16 -23684.827153  -1951.800756 -12444.378840     25.515444                    
PG17  14168.549756  20943.632469   8710.776863   -100.751134                    
PG18 -15129.505813   9138.553267  19314.500177      5.452690                    
PG19  18261.543223  19121.628188    673.925855   -438.606173                    
PG20  13221.634226 -18218.582010  13930.678826    507.366188                    
PG21    876.054924 -26436.558806   3236.501562   -398.762635                    
PG22 -24906.309653   8997.653646   2257.041440   -382.257299                    
PG23 -13893.377807   8209.512810 -20873.790793   -217.503515                    
PG24  14299.408766 -14275.663269  16973.727009    -49.523495                    
PG25  13849.564412 -16382.384575 -15683.386332   -580.861847                    
PG26 -16453.044683  -8180.671653 -19236.603973   -158.820883                    
PG27 -22642.165281 -10944.971804   8870.022494    369.433363                    
PG28   1722.571189  14972.603938  22495.776803    712.592951                    
PG29   4321.720709 -15345.298926 -21267.550134    454.531235                    
PG30    714.375479  25037.807660   8595.047910     77.056426                    
PG31  -8329.055281 -18369.015975 -17022.201179    123.457435                    
PG32 -14509.318617 -20307.164970   9242.958309   -513.102419                    
*  2018  5  6  8 30  0.00000000                                                 
PG01 -13217.149893  15511.715475  16723.489835    -45.879006                    
PG02  14008.920891   8997.403883 -20190.422277    123.536380                    
PG03 -22656.910716  13187.998720  -4089.949077     64.796295                    
PG05  22584.231209    687.102060 -14227.582417     -8.616381                    
PG06   7266.190208  21493.973563 -13751.450582    404.959254                    
PG07  -5538.721775  25470.049051  -3387.813957    196.159144                    
PG08 -20656.564485   -489.232870  16821.093739   -100.435001                    
PG09  -2728.728773  16237.210954 -20868.994198    513.025308                    
PG10  -3923.314950 -14861.082378  21694.292234    183.214671                    
PG11 -12537.806430  11644.625471  19787.286677   -736.857412                    
PG12  24341.649238 -10241.163998  -1705.295417    335.263988                    
PG13  21949.487547  10264.396850  10761.975511    -94.816134                    
PG14 -18999.688791 -18557.961461   2580.692008    -96.841773                    
PG15  20718.035342  -1865.961436  16513.166896   -354.743072                    
PG16 -22275.380413  -2511.514741 -14726.473406     25.514383                    
PG17  13243.220938  20350.722621  11292.505680   -100.747990                    
PG18 -15021.730052   6769.724151  20340.225774      5.457246                    
PG19  17914.199886  19087.760755   3565.847134   -438.603749                    
PG20  14672.347394 -18676.668737  11709.343629    507.367140                    
PG21   1186.300806 -26533.630782    425.297118   -398.758363                    
PG22 -24703.720214   8513.136736   4998.212597   -382.269213                    
PG23 -15766.672957   6706.122492 -20114.657826   -217.502969                    
PG24  14288.407699 -12198.570010  18545.982327    -49.524384                    
PG25  15443.334785 -16838.095740 -13518.905614   -580.867316                    
PG26 -14412.737217  -9164.488887 -20384.042063   -158.809349                    
PG27 -23215.965569 -11612.371917   6169.674438    369.432801                    
PG28   -584.988116  15664.148881  22071.230572    712.595776                    
PG29   6192.494691 -13750.057898 -21886.327051    454.525634                    
PG30    266.486502  25803.306773   5930.107675     77.052721                    
PG31  -7830.027464 -20168.675757 -15080.558024    123.454900                    
PG32 -13424.690659 -19760.288800  11732.777336   -513.098352                    
*  2018  5  6  8 45  0.00000000                                                 
PG01 -13211.852559  13460.685296  18430.534743    -45.881544                    
PG02  13862.476815  11353.577353 -19127.008718    123.526277                    
PG03 -23043.434454  13087.781265  -1252.849021     64.803017                    
PG05  21138.337863   1642.326639 -16224.814359     -8.615759                    
PG06   6979.111081  22920.900042 -11398.358351    404.957153                    
PG07  -5777.008596  24866.451766  -6195.038184    196.153526                    
PG08 -22073.178270  -1604.277564  14842.912237   -100.436642                    
PG09  -4778.270939  14953.265966 -21453.670377    513.026093                    
PG10  -1702.267218 -15893.064117  21231.304569    183.216498                    
PG11 -13446.722946   9389.955526  20350.997948   -736.856823                    
PG12  24422.970885 -10062.239572   1212.762322    335.261785                    
PG13  22639.014741  11143.532503   8174.696534    -94.815868                    
PG14 -18525.078638 -18478.351763   5379.562261    -96.841781                    
PG15  22189.557875   -786.230240  14639.083197   -354.742636                    
PG16 -20673.548209  -3237.914130 -16762.431881     25.513170                    
PG17  12066.557194  19641.309945  13684.600902   -100.745276                    
PG18 -15026.175970   4301.409998  21000.384020      5.461913                    
PG19  17313.348143  18864.103384   6395.382807   -438.601101                    
PG20  15875.458964 -19064.781898   9284.653469    507.367961                    
PG21   1488.292380 -26328.012104  -2393.149275   -398.754035                    
PG22 -24257.435902   7876.586455   7653.794493   -382.281195                    
PG23 -17619.282072   5359.085377 -19003.977242   -217.502647                    
PG24  14371.518978  -9964.653988  19793.245815    -49.525028                    
PG25  16778.824984 -17268.229935 -11121.459878   -580.872741                    
PG26 -12326.468973 -10301.648102 -21182.046123   -158.797817                    
PG27 -23569.020970 -12071.418934   3364.561511    369.432241                    
PG28  -2787.475747  16464.605300  21287.961782    712.598613                    
PG29   8188.086279 -12231.697295 -22129.299359    454.519843                    
PG30   -102.940813  26284.696697   3162.148041     77.049072                    
PG31  -7449.616450 -21757.922492 -12873.838559    123.452640                    
PG32 -12089.821272 -19119.032728  14021.907868   -513.094327                    
EOF                                                                             
